NORAD_CAT_ID,OBJECT_NAME,OBJECT_TYPE,EPOCH,MEAN_MOTION,ECCENTRICITY,INCLINATION,RA_OF_ASC_NODE,ARG_OF_PERICENTER,MEAN_ANOMALY,BSTAR,MEAN_MOTION_DOT,MEAN_MOTION_DDOT,TLE_LINE0,TLE_LINE1,TLE_LINE2,SEMIMAJOR_AXIS,PERIOD,APOGEE,PERIGEE,DECAYED
52119.0,STARLINK-3558,PAYLOAD,2022-05-06 06:00:00,15.59755285,0.0001269,53.2173,266.7384,66.6161,172.5367,-0.0095242,-0.00711903,0.0,0 STARLINK-3558,1 52119U 22029AH  22126.25001157 -.00711903  00000-0 -95242-2 0  9994,2 52119  53.2173 266.7384 0001269  66.6161 172.5367 15.59755285  8811,6766.502,92.322,389.225,387.508,0.0
52119.0,STARLINK-3558,PAYLOAD,2022-05-06 14:00:01,15.59246815,0.0001238,53.2175,265.1259,62.261,249.3528,-0.0097498,-0.0071446,0.0,0 STARLINK-3558,1 52119U 22029AH  22126.58334491 -.00714460  00000-0 -97498-2 0  9996,2 52119  53.2175 265.1259 0001238  62.2610 249.3528 15.59246815  3714,6767.973000000001,92.352,390.676,389.0,0.0
52119.0,STARLINK-3558,PAYLOAD,2022-05-07 04:00:00,15.58354028,0.0001173,53.2177,262.3031,57.8987,289.0505,-0.010081,-0.00714035,0.0,0 STARLINK-3558,1 52119U 22029AH  22127.16667824 -.00714035  00000-0 -10081-1 0  9990,2 52119  53.2177 262.3031 0001173  57.8987 289.0505 15.58354028  8950,6770.557,92.405,393.217,391.628,0.0
52119.0,STARLINK-3558,PAYLOAD,2022-05-07 14:00:01,15.57714864,0.0001631999999999,53.2175,260.2912,43.8428,121.4821,-0.010283,-0.00711257,0.0,0 STARLINK-3558,1 52119U 22029AH  22127.58334491 -.00711257  00000-0 -10283-1 0  9994,2 52119  53.2175 260.2912 0001632  43.8428 121.4821 15.57714864  3703,6772.409000000002,92.443,395.38,393.169,0.0
52119.0,STARLINK-3558,PAYLOAD,2022-05-07 22:00:00,15.57208332,0.0001304,53.2171,258.6822,65.575,169.7597,-0.010569,-0.00716647,0.0,0 STARLINK-3558,1 52119U 22029AH  22127.91667824 -.00716647  00000-0 -10569-1 0  9995,2 52119  53.2171 258.6822 0001304  65.5750 169.7597 15.57208332  3708,6773.878000000002,92.473,396.626,394.86,0.0
52119.0,STARLINK-3558,PAYLOAD,2022-05-08 04:00:00,15.56822693,0.0001414,53.2175,257.4747,53.9137,143.5291,-0.010627,-0.00710761,0.0,0 STARLINK-3558,1 52119U 22029AH  22128.16667824 -.00710761  00000-0 -10627-1 0  9999,2 52119  53.2175 257.4747 0001414  53.9137 143.5291 15.56822693  9110,6774.996,92.496,397.819,395.903,0.0
52119.0,STARLINK-3558,PAYLOAD,2022-05-08 14:00:01,15.56187731,0.0001546,53.2175,255.4677,37.9398,335.579,-0.010958,-0.00715296,0.0,0 STARLINK-3558,1 52119U 22029AH  22128.58334491 -.00715296  00000-0 -10958-1 0  9991,2 52119  53.2175 255.4677 0001546  37.9398 335.5790 15.56187731  3698,6776.839,92.534,399.752,397.657,0.0
52119.0,STARLINK-3558,PAYLOAD,2022-05-08 22:00:00,15.55677071,0.0001264,53.2171,253.8623,53.8378,27.8539,-0.011139,-0.00713508,0.0,0 STARLINK-3558,1 52119U 22029AH  22128.91667824 -.00713508  00000-0 -11139-1 0  9993,2 52119  53.2171 253.8623 0001264  53.8378  27.8539 15.55677071  3703,6778.321999999999,92.564,401.044,399.33,0.0
52119.0,STARLINK-3558,PAYLOAD,2022-05-09 04:00:00,15.55292995,0.0001416,53.2173,252.6575,41.0988,1.3219999999999998,-0.011262,-0.0071138999999999,0.0,0 STARLINK-3558,1 52119U 22029AH  22129.16667824 -.00711390  00000-0 -11262-1 0  9995,2 52119  53.2173 252.6575 0001416  41.0988   1.3220 15.55292995  9273,6779.438,92.587,402.263,400.343,0.0
52119.0,STARLINK-3558,PAYLOAD,2022-05-09 14:00:01,15.546549800000005,0.0001623,53.2173,250.6551,47.449,168.8159,-0.01152,-0.00710806,0.0,0 STARLINK-3558,1 52119U 22029AH  22129.58335648 -.00710806  00000-0 -11520-1 0  9995,2 52119  53.2173 250.6551 0001623  47.4490 168.8159 15.54654980  3700,6781.293000000002,92.625,404.258,402.057,0.0
52119.0,STARLINK-3558,PAYLOAD,2022-05-09 22:00:00,15.54148631,0.0001288,53.2173,249.0531,59.8025,222.7308,-0.011839,-0.0071641,0.0,0 STARLINK-3558,1 52119U 22029AH  22129.91667824 -.00716410  00000-0 -11839-1 0  9996,2 52119  53.2173 249.0531 0001288  59.8025 222.7308 15.54148631  3693,6782.766,92.655,405.504,403.757,0.0
52119.0,STARLINK-3558,PAYLOAD,2022-05-10 06:00:00,15.53635124,0.0001303,53.2174,247.4511,49.2512,299.006,-0.011961,-0.00710795,0.0,0 STARLINK-3558,1 52119U 22029AH  22130.25001157 -.00710795  00000-0 -11961-1 0  9992,2 52119  53.2174 247.4511 0001303  49.2512 299.0060 15.53635124  9433,6784.26,92.686,407.009,405.241,0.0
52119.0,STARLINK-3558,PAYLOAD,2022-05-10 14:00:01,15.53128086,0.0001564,53.2175,245.8538,38.726,14.6377,-0.012265,-0.00715131,0.0,0 STARLINK-3558,1 52119U 22029AH  22130.58334491 -.00715131  00000-0 -12265-1 0  9995,2 52119  53.2175 245.8538 0001564  38.7260  14.6377 15.53128086  3695,6785.736999999999,92.716,408.663,406.54,0.0
52119.0,STARLINK-3558,PAYLOAD,2022-05-10 18:00:00,15.52857216,0.0001377,53.2173,245.0539,50.4269,215.2683,-0.011931,-0.00690928,0.0,0 STARLINK-3558,1 52119U 22029AH  22130.75001157 -.00690928  00000-0 -11931-1 0  9999,2 52119  53.2173 245.0539 0001377  50.4269 215.2683 15.52857216  3689,6786.526,92.732,409.325,407.456,0.0
52119.0,STARLINK-3558,PAYLOAD,2022-05-11 20:00:01,15.51214988,0.0001544,53.2171,239.8675,48.5714,153.493,-0.013111,-0.00722571,0.0,0 STARLINK-3558,1 52119U 22029AH  22131.83334491 -.00722571  00000-0 -13111-1 0  9991,2 52119  53.2171 239.8675 0001544  48.5714 153.4930 15.51214988  9684,6791.315,92.83,414.228,412.131,0.0
52119.0,STARLINK-3558,PAYLOAD,2022-05-11 22:00:00,15.51088192,0.0001353,53.2173,239.4682,52.5406,255.1311,-0.013202,-0.00724126,0.0,0 STARLINK-3558,1 52119U 22029AH  22131.91667824 -.00724126  00000-0 -13202-1 0  9998,2 52119  53.2173 239.4682 0001353  52.5406 255.1311 15.51088192  1301,6791.685,92.838,414.469,412.631,0.0
52119.0,STARLINK-3558,PAYLOAD,2022-05-12 14:00:01,15.49934531,0.0001749,53.2172,236.282,35.6183,35.5471,-0.0014017,-0.00079346,0.0,0 STARLINK-3558,1 52119U 22029AH  22132.58334491 -.00079346  00000-0 -14017-2 0  9996,2 52119  53.2172 236.2820 0001749  35.6183  35.5471 15.49934531  1303,6795.054,92.907,418.108,415.731,0.0
52119.0,STARLINK-3558,PAYLOAD,2022-05-12 20:00:01,15.49887273,0.0001365,53.2171,235.0873,51.097,335.7767,-3.4546e-05,-2.412e-05,0.0,0 STARLINK-3558,1 52119U 22029AH  22132.83334491 -.00002412  00000-0 -34546-4 0  9995,2 52119  53.2171 235.0873 0001365  51.0970 335.7767 15.49887273  9847,6795.193,92.91,417.985,416.13,0.0
52119.0,STARLINK-3558,PAYLOAD,2022-05-12 22:00:00,15.49886926,0.0001414,53.2172,234.6883,51.1578,80.9453,-4.2651e-05,-2.871e-05,0.0,0 STARLINK-3558,1 52119U 22029AH  22132.91667824 -.00002871  00000-0 -42651-4 0  9998,2 52119  53.2172 234.6883 0001414  51.1578  80.9453 15.49886926  1302,6795.194,92.91,418.019,416.098,0.0
52119.0,STARLINK-3558,PAYLOAD,2022-05-13 04:00:00,15.49941941,0.0001719,53.2157,233.4828,48.6751,39.2567,0.00034916,0.00019454,0.0,0 STARLINK-3558,1 52119U 22029AH  22133.16667824  .00019454  00000-0  34916-3 0  9993,2 52119  53.2157 233.4828 0001719  48.6751  39.2567 15.49941941  9897,6795.033,92.907,418.066,415.73,0.0
52119.0,STARLINK-3558,PAYLOAD,2022-05-13 14:00:01,15.49889389,0.0001786,53.2166,231.4934,39.8299,214.3326,-0.00017437,-0.00010337,0.0,0 STARLINK-3558,1 52119U 22029AH  22133.58334491 -.00010337  00000-0 -17437-3 0  9992,2 52119  53.2166 231.4934 0001786  39.8299 214.3326 15.49889389  9959,6795.186,92.91,418.265,415.838,0.0
52119.0,STARLINK-3558,PAYLOAD,2022-05-13 22:00:00,15.49891628,0.0001629,53.2165,229.8992,34.8234,280.2547,-0.0015427,-0.00087064,0.0,0 STARLINK-3558,1 52119U 22029AH  22133.91667824 -.00087064  00000-0 -15427-2 0  9995,2 52119  53.2165 229.8992 0001629  34.8234 280.2547 15.49891628  1300,6795.18,92.91,418.152,415.93800000000016,0.0
52119.0,STARLINK-3558,PAYLOAD,2022-05-14 06:00:00,15.49841546,0.0001517,53.2166,228.3055,36.8666,339.0999,0.00062976,0.00035398,0.0,0 STARLINK-3558,1 52119U 22029AH  22134.25001157  .00035398  00000-0  62976-3 0  9997,2 52119  53.2166 228.3055 0001517  36.8666 339.0999 15.49841546 10063,6795.326,92.913,418.222,416.16,0.0
52119.0,STARLINK-3558,PAYLOAD,2022-05-14 14:00:01,15.4985983,0.0001769,53.2164,226.7147,32.7326,44.1179,0.00027744,0.00015312,0.0,0 STARLINK-3558,1 52119U 22029AH  22134.58334491  .00015312  00000-0  27744-3 0  9991,2 52119  53.2164 226.7147 0001769  32.7326  44.1179 15.49859830  1308,6795.273,92.912,418.34,415.936,0.0
52119.0,STARLINK-3558,PAYLOAD,2022-05-14 22:00:00,15.49894271,0.0001692,53.2158,225.1206,32.5543,105.1845,-0.00029871,-0.00017373,0.0,0 STARLINK-3558,1 52119U 22029AH  22134.91667824 -.00017373  00000-0 -29871-3 0  9991,2 52119  53.2158 225.1206 0001692  32.5543 105.1845 15.49894271  1300,6795.172,92.91,418.187,415.887,0.0
52119.0,STARLINK-3558,PAYLOAD,2022-05-15 06:00:00,15.49888515,0.0001556,53.216,223.5269,38.3497,160.2984,0.00058251,0.00032752,0.0,0 STARLINK-3558,1 52119U 22029AH  22135.25001157  .00032752  00000-0  58251-3 0  9990,2 52119  53.2160 223.5269 0001556  38.3497 160.2984 15.49888515 10215,6795.189,92.91,418.111,415.997,0.0
52119.0,STARLINK-3558,PAYLOAD,2022-05-15 12:00:00,15.49641704,0.0001622,53.2173,222.3391,25.5742,128.8166,0.0045674,0.00265471,0.0,0 STARLINK-3558,1 52119U 22029AH  22135.50001157  .00265471  00000-0  45674-2 0  9998,2 52119  53.2173 222.3391 0001622  25.5742 128.8166 15.49641704 10250,6795.91,92.925,418.878,416.673,0.0
52119.0,STARLINK-3558,PAYLOAD,2022-05-15 14:00:01,15.49592702,0.0001691,53.2174,221.9421,29.5747,230.0775,0.0075361,0.00448046,0.0,0 STARLINK-3558,1 52119U 22029AH  22135.58335648  .00448046  00000-0  75361-2 0  9998,2 52119  53.2174 221.9421 0001691  29.5747 230.0775 15.49592702  1306,6796.054,92.928,419.068,416.769,0.0
52119.0,STARLINK-3558,PAYLOAD,2022-05-15 20:00:01,15.49957246,0.0001818,53.2154,220.7405,33.9495,181.33,-0.0013256,-0.00075163,0.0,0 STARLINK-3558,1 52119U 22029AH  22135.83334491 -.00075163  00000-0 -13256-2 0  9994,2 52119  53.2154 220.7405 0001818  33.9495 181.3300 15.49957246 10303,6794.988,92.906,418.088,415.61800000000005,0.0
